{
  "type": "FeatureCollection",
  "features": [
    {
      "type": "Feature",
      "properties": {
        "norad_id": 36048,
        "name": "COSMOS 2251 DEB",
        "group": "cosmos-2251-debris",
        "lat": -26.055802267410584,
        "lon": 111.39110348609721,
        "alt_km": 781.786036397365,
        "timestamp": "2025-12-21T09:37:23.051964+00:00",
        "meta_object_name": "COSMOS 2251 DEB",
        "meta_object_id": "1993-036AXK",
        "meta_epoch": "2025-12-20T19:26:44.380896",
        "meta_mean_motion": 14.37864585,
        "meta_eccentricity": 0.00269473,
        "meta_inclination": 74.0573,
        "meta_ra_of_asc_node": 284.4429,
        "meta_arg_of_pericenter": 332.9833,
        "meta_mean_anomaly": 57.801,
        "meta_ephemeris_type": 0,
        "meta_classification_type": "U",
        "meta_norad_cat_id": 36048,
        "meta_element_set_no": 999,
        "meta_rev_at_epoch": 85618,
        "meta_bstar": 0.00018805853,
        "meta_mean_motion_dot": 5.43e-06,
        "meta_mean_motion_ddot": 0,
        "tle_line1": "1 36048U 93036AXK 25354.81023589  .00000543  00000+0  18806-3 0  9994",
        "tle_line2": "2 36048  74.0573 284.4429 0026947 332.9833  57.8010 14.37864585856181"
      },
      "geometry": {
        "type": "Point",
        "coordinates": [
          111.39110348609721,
          -26.055802267410584
        ]
      }
    },
    {
      "type": "Feature",
      "properties": {
        "norad_id": 36049,
        "name": "COSMOS 2251 DEB",
        "group": "cosmos-2251-debris",
        "lat": -8.118114943145448,
        "lon": 100.2522888183481,
        "alt_km": 696.5363596940415,
        "timestamp": "2025-12-21T09:37:23.051978+00:00",
        "meta_object_name": "COSMOS 2251 DEB",
        "meta_object_id": "1993-036AXL",
        "meta_epoch": "2025-12-19T00:11:29.887584",
        "meta_mean_motion": 14.62222603,
        "meta_eccentricity": 0.00103942,
        "meta_inclination": 74.0312,
        "meta_ra_of_asc_node": 107.1751,
        "meta_arg_of_pericenter": 195.1693,
        "meta_mean_anomaly": 164.9164,
        "meta_ephemeris_type": 0,
        "meta_classification_type": "U",
        "meta_norad_cat_id": 36049,
        "meta_element_set_no": 999,
        "meta_rev_at_epoch": 85456,
        "meta_bstar": 0.00099664593,
        "meta_mean_motion_dot": 4.999e-05,
        "meta_mean_motion_ddot": 0,
        "tle_line1": "1 36049U 93036AXL 25353.00798481  .00004999  00000+0  99665-3 0  9996",
        "tle_line2": "2 36049  74.0312 107.1751 0010394 195.1693 164.9164 14.62222603854561"
      },
      "geometry": {
        "type": "Point",
        "coordinates": [
          100.2522888183481,
          -8.118114943145448
        ]
      }
    },
    {
      "type": "Feature",
      "properties": {
        "norad_id": 36050,
        "name": "COSMOS 2251 DEB",
        "group": "cosmos-2251-debris",
        "lat": -13.08074846756326,
        "lon": 0.20329987736047114,
        "alt_km": 536.6695386963738,
        "timestamp": "2025-12-21T09:37:23.051988+00:00",
        "meta_object_name": "COSMOS 2251 DEB",
        "meta_object_id": "1993-036AXM",
        "meta_epoch": "2025-12-15T21:35:48.459552",
        "meta_mean_motion": 15.01080492,
        "meta_eccentricity": 0.00887608,
        "meta_inclination": 74.0305,
        "meta_ra_of_asc_node": 187.588,
        "meta_arg_of_pericenter": 266.4769,
        "meta_mean_anomaly": 92.6264,
        "meta_ephemeris_type": 0,
        "meta_classification_type": "U",
        "meta_norad_cat_id": 36050,
        "meta_element_set_no": 999,
        "meta_rev_at_epoch": 67082,
        "meta_bstar": 0.00042445305,
        "meta_mean_motion_dot": 5.866e-05,
        "meta_mean_motion_ddot": 0,
        "tle_line1": "1 36050U 93036AXM 25349.89986643  .00005866  00000+0  42445-3 0  9997",
        "tle_line2": "2 36050  74.0305 187.5880 0088760 266.4769  92.6264 15.01080492670823"
      },
      "geometry": {
        "type": "Point",
        "coordinates": [
          0.20329987736047114,
          -13.08074846756326
        ]
      }
    },
    {
      "type": "Feature",
      "properties": {
        "norad_id": 36053,
        "name": "COSMOS 2251 DEB",
        "group": "cosmos-2251-debris",
        "lat": 4.186995912813056,
        "lon": -45.147728486591056,
        "alt_km": 705.1971859532541,
        "timestamp": "2025-12-21T09:37:23.051999+00:00",
        "meta_object_name": "COSMOS 2251 DEB",
        "meta_object_id": "1993-036AXQ",
        "meta_epoch": "2025-12-19T02:27:11.674944",
        "meta_mean_motion": 14.57252603,
        "meta_eccentricity": 0.00325446,
        "meta_inclination": 73.8697,
        "meta_ra_of_asc_node": 140.476,
        "meta_arg_of_pericenter": 87.3695,
        "meta_mean_anomaly": 273.1193,
        "meta_ephemeris_type": 0,
        "meta_classification_type": "U",
        "meta_norad_cat_id": 36053,
        "meta_element_set_no": 999,
        "meta_rev_at_epoch": 87537,
        "meta_bstar": 0.0010759038,
        "meta_mean_motion_dot": 4.872e-05,
        "meta_mean_motion_ddot": 0,
        "tle_line1": "1 36053U 93036AXQ 25353.10221846  .00004872  00000+0  10759-2 0  9994",
        "tle_line2": "2 36053  73.8697 140.4760 0032544  87.3695 273.1193 14.57252603875378"
      },
      "geometry": {
        "type": "Point",
        "coordinates": [
          -45.147728486591056,
          4.186995912813056
        ]
      }
    },
    {
      "type": "Feature",
      "properties": {
        "norad_id": 36058,
        "name": "COSMOS 2251 DEB",
        "group": "cosmos-2251-debris",
        "lat": -12.192174682012949,
        "lon": 13.402328584654384,
        "alt_km": 730.9306707450905,
        "timestamp": "2025-12-21T09:37:23.052009+00:00",
        "meta_object_name": "COSMOS 2251 DEB",
        "meta_object_id": "1993-036AXV",
        "meta_epoch": "2025-12-20T18:52:04.818432",
        "meta_mean_motion": 14.58726339,
        "meta_eccentricity": 0.00440828,
        "meta_inclination": 74.0229,
        "meta_ra_of_asc_node": 18.1226,
        "meta_arg_of_pericenter": 150.2394,
        "meta_mean_anomaly": 210.1292,
        "meta_ephemeris_type": 0,
        "meta_classification_type": "U",
        "meta_norad_cat_id": 36058,
        "meta_element_set_no": 999,
        "meta_rev_at_epoch": 66228,
        "meta_bstar": 0.0002931852,
        "meta_mean_motion_dot": 1.357e-05,
        "meta_mean_motion_ddot": 0,
        "tle_line1": "1 36058U 93036AXV 25354.78616688  .00001357  00000+0  29319-3 0  9994",
        "tle_line2": "2 36058  74.0229  18.1226 0044082 150.2394 210.1292 14.58726339662289"
      },
      "geometry": {
        "type": "Point",
        "coordinates": [
          13.402328584654384,
          -12.192174682012949
        ]
      }
    },
    {
      "type": "Feature",
      "properties": {
        "norad_id": 36060,
        "name": "COSMOS 2251 DEB",
        "group": "cosmos-2251-debris",
        "lat": 74.01804927866044,
        "lon": -51.29195347228277,
        "alt_km": 752.317187240863,
        "timestamp": "2025-12-21T09:37:23.052043+00:00",
        "meta_object_name": "COSMOS 2251 DEB",
        "meta_object_id": "1993-036AXX",
        "meta_epoch": "2025-12-20T23:13:01.329600",
        "meta_mean_motion": 14.42015766,
        "meta_eccentricity": 0.0015533,
        "meta_inclination": 74.028,
        "meta_ra_of_asc_node": 219.3084,
        "meta_arg_of_pericenter": 315.4296,
        "meta_mean_anomaly": 44.561,
        "meta_ephemeris_type": 0,
        "meta_classification_type": "U",
        "meta_norad_cat_id": 36060,
        "meta_element_set_no": 999,
        "meta_rev_at_epoch": 85128,
        "meta_bstar": 0.0002159,
        "meta_mean_motion_dot": 6.83e-06,
        "meta_mean_motion_ddot": 0,
        "tle_line1": "1 36060U 93036AXX 25354.96737650  .00000683  00000+0  21590-3 0  9994",
        "tle_line2": "2 36060  74.0280 219.3084 0015533 315.4296  44.5610 14.42015766851282"
      },
      "geometry": {
        "type": "Point",
        "coordinates": [
          -51.29195347228277,
          74.01804927866044
        ]
      }
    },
    {
      "type": "Feature",
      "properties": {
        "norad_id": 36061,
        "name": "COSMOS 2251 DEB",
        "group": "cosmos-2251-debris",
        "lat": 12.093848800281101,
        "lon": -12.574233135289807,
        "alt_km": 765.5715436480432,
        "timestamp": "2025-12-21T09:37:23.052055+00:00",
        "meta_object_name": "COSMOS 2251 DEB",
        "meta_object_id": "1993-036AXY",
        "meta_epoch": "2025-12-20T16:49:06.144384",
        "meta_mean_motion": 14.33720119,
        "meta_eccentricity": 0.00368808,
        "meta_inclination": 74.0242,
        "meta_ra_of_asc_node": 345.1877,
        "meta_arg_of_pericenter": 70.6074,
        "meta_mean_anomaly": 289.9058,
        "meta_ephemeris_type": 0,
        "meta_classification_type": "U",
        "meta_norad_cat_id": 36061,
        "meta_element_set_no": 999,
        "meta_rev_at_epoch": 65218,
        "meta_bstar": 0.00020724072,
        "meta_mean_motion_dot": 5.54e-06,
        "meta_mean_motion_ddot": 0,
        "tle_line1": "1 36061U 93036AXY 25354.70076556  .00000554  00000+0  20724-3 0  9993",
        "tle_line2": "2 36061  74.0242 345.1877 0036880  70.6074 289.9058 14.33720119652185"
      },
      "geometry": {
        "type": "Point",
        "coordinates": [
          -12.574233135289807,
          12.093848800281101
        ]
      }
    }
  ]
}